DAMPE                   
1 41173U 15078A   22231.48997616  .00000714  00000+0  31856-4 0  9995
2 41173  97.3803 221.3112 0013105 345.7624 129.9935 15.24530362371180
PISAT                   
1 41784U 16059B   22231.36380710  .00000449  00000+0  94128-4 0  9997
2 41784  97.9115 272.2529 0030996 332.9957  26.9632 14.63972422314895
HXMT (HUIYAN)           
1 42758U 17034A   22231.56402299  .00002455  00000+0  15855-3 0  9990
2 42758  43.0180   1.1661 0010343 313.0327 147.0432 15.10732587285723
FLYING LAPTOP           
1 42831U 17042G   22231.51143190  .00000097  00000+0  14696-4 0  9991
2 42831  97.4175  82.2850 0014355 150.8488 209.3547 14.91876535277498
PICSAT                  
1 43132U 18004X   22231.45335582  .00011935  00000+0  37855-3 0  9990
2 43132  97.3684 307.5374 0008713 129.0052 231.1967 15.32805216256059
ZHANGHENG 1 (CSES)      
1 43194U 18015C   22231.55475265  .00006929  00000+0  31831-3 0  9999
2 43194  97.5308   2.2421 0007721 225.1899 197.5984 15.20683199252218
ICON                    
1 44628U 19068A   22231.46858659  .00001908  00000+0  15949-3 0  9997
2 44628  26.9880 256.7319 0017998 313.1947  46.7108 14.93049631155999
SALSAT                  
1 46495U 20068K   22231.40802324  .00001832  00000+0  13412-3 0  9994
2 46495  97.7301 172.7449 0017909  66.6223 293.6884 15.04725215103659
IXPE                    
1 49954U 21121A   22231.45753487  .00002324  00000+0  15125-3 0  9998
2 49954   0.2297 280.0873 0011043 139.7465 300.2757 14.91560863 37866
