[{"OBJECT_NAME":"DAMPE","OBJECT_ID":"2015-078A","EPOCH":"2022-08-19T11:45:33.940224","MEAN_MOTION":15.24530362,"ECCENTRICITY":0.0013105,"INCLINATION":97.3803,"RA_OF_ASC_NODE":221.3112,"ARG_OF_PERICENTER":345.7624,"MEAN_ANOMALY":129.9935,"EPHEMERIS_TYPE":0,"CLASSIFICATION_TYPE":"U","NORAD_CAT_ID":41173,"ELEMENT_SET_NO":999,"REV_AT_EPOCH":37118,"BSTAR":3.1856e-5,"MEAN_MOTION_DOT":7.14e-6,"MEAN_MOTION_DDOT":0},{"OBJECT_NAME":"PISAT","OBJECT_ID":"2016-059B","EPOCH":"2022-08-19T08:43:52.933440","MEAN_MOTION":14.63972422,"ECCENTRICITY":0.0030996,"INCLINATION":97.9115,"RA_OF_ASC_NODE":272.2529,"ARG_OF_PERICENTER":332.9957,"MEAN_ANOMALY":26.9632,"EPHEMERIS_TYPE":0,"CLASSIFICATION_TYPE":"U","NORAD_CAT_ID":41784,"ELEMENT_SET_NO":999,"REV_AT_EPOCH":31489,"BSTAR":9.4128e-5,"MEAN_MOTION_DOT":4.49e-6,"MEAN_MOTION_DDOT":0},{"OBJECT_NAME":"HXMT (HUIYAN)","OBJECT_ID":"2017-034A","EPOCH":"2022-08-19T13:32:11.586336","MEAN_MOTION":15.10732587,"ECCENTRICITY":0.0010343,"INCLINATION":43.018,"RA_OF_ASC_NODE":1.1661,"ARG_OF_PERICENTER":313.0327,"MEAN_ANOMALY":147.0432,"EPHEMERIS_TYPE":0,"CLASSIFICATION_TYPE":"U","NORAD_CAT_ID":42758,"ELEMENT_SET_NO":999,"REV_AT_EPOCH":28572,"BSTAR":0.00015855,"MEAN_MOTION_DOT":2.455e-5,"MEAN_MOTION_DDOT":0},{"OBJECT_NAME":"FLYING LAPTOP","OBJECT_ID":"2017-042G","EPOCH":"2022-08-19T12:16:27.716160","MEAN_MOTION":14.91876535,"ECCENTRICITY":0.0014355,"INCLINATION":97.4175,"RA_OF_ASC_NODE":82.285,"ARG_OF_PERICENTER":150.8488,"MEAN_ANOMALY":209.3547,"EPHEMERIS_TYPE":0,"CLASSIFICATION_TYPE":"U","NORAD_CAT_ID":42831,"ELEMENT_SET_NO":999,"REV_AT_EPOCH":27749,"BSTAR":1.4696e-5,"MEAN_MOTION_DOT":9.7e-7,"MEAN_MOTION_DDOT":0},{"OBJECT_NAME":"PICSAT","OBJECT_ID":"2018-004X","EPOCH":"2022-08-19T10:52:49.942848","MEAN_MOTION":15.32805216,"ECCENTRICITY":0.0008713,"INCLINATION":97.3684,"RA_OF_ASC_NODE":307.5374,"ARG_OF_PERICENTER":129.0052,"MEAN_ANOMALY":231.1967,"EPHEMERIS_TYPE":0,"CLASSIFICATION_TYPE":"U","NORAD_CAT_ID":43132,"ELEMENT_SET_NO":999,"REV_AT_EPOCH":25605,"BSTAR":0.00037855,"MEAN_MOTION_DOT":0.00011935,"MEAN_MOTION_DDOT":0},{"OBJECT_NAME":"ZHANGZHENG-1 (CSES)","OBJECT_ID":"2018-015C","EPOCH":"2022-08-19T13:18:50.628960","MEAN_MOTION":15.20683199,"ECCENTRICITY":0.0007721,"INCLINATION":97.5308,"RA_OF_ASC_NODE":2.2421,"ARG_OF_PERICENTER":225.1899,"MEAN_ANOMALY":197.5984,"EPHEMERIS_TYPE":0,"CLASSIFICATION_TYPE":"U","NORAD_CAT_ID":43194,"ELEMENT_SET_NO":999,"REV_AT_EPOCH":25221,"BSTAR":0.00031831,"MEAN_MOTION_DOT":6.929e-5,"MEAN_MOTION_DDOT":0},{"OBJECT_NAME":"ICON","OBJECT_ID":"2019-068A","EPOCH":"2022-08-19T11:14:45.881376","MEAN_MOTION":14.93049631,"ECCENTRICITY":0.0017998,"INCLINATION":26.988,"RA_OF_ASC_NODE":256.7319,"ARG_OF_PERICENTER":313.1947,"MEAN_ANOMALY":46.7108,"EPHEMERIS_TYPE":0,"CLASSIFICATION_TYPE":"U","NORAD_CAT_ID":44628,"ELEMENT_SET_NO":999,"REV_AT_EPOCH":15599,"BSTAR":0.00015949,"MEAN_MOTION_DOT":1.908e-5,"MEAN_MOTION_DDOT":0},{"OBJECT_NAME":"SALSAT","OBJECT_ID":"2020-068K","EPOCH":"2022-08-19T09:47:33.207936","MEAN_MOTION":15.04725215,"ECCENTRICITY":0.0017909,"INCLINATION":97.7301,"RA_OF_ASC_NODE":172.7449,"ARG_OF_PERICENTER":66.6223,"MEAN_ANOMALY":293.6884,"EPHEMERIS_TYPE":0,"CLASSIFICATION_TYPE":"U","NORAD_CAT_ID":46495,"ELEMENT_SET_NO":999,"REV_AT_EPOCH":10365,"BSTAR":0.00013412,"MEAN_MOTION_DOT":1.832e-5,"MEAN_MOTION_DDOT":0},{"OBJECT_NAME":"IXPE","OBJECT_ID":"2021-121A","EPOCH":"2022-08-19T10:58:51.012768","MEAN_MOTION":14.91560863,"ECCENTRICITY":0.0011043,"INCLINATION":0.2297,"RA_OF_ASC_NODE":280.0873,"ARG_OF_PERICENTER":139.7465,"MEAN_ANOMALY":300.2757,"EPHEMERIS_TYPE":0,"CLASSIFICATION_TYPE":"U","NORAD_CAT_ID":49954,"ELEMENT_SET_NO":999,"REV_AT_EPOCH":3786,"BSTAR":0.00015125,"MEAN_MOTION_DOT":2.324e-5,"MEAN_MOTION_DDOT":0}]